NORAD_CAT_ID,OBJECT_NAME,OBJECT_TYPE,EPOCH,MEAN_MOTION,ECCENTRICITY,INCLINATION,RA_OF_ASC_NODE,ARG_OF_PERICENTER,MEAN_ANOMALY,BSTAR,MEAN_MOTION_DOT,MEAN_MOTION_DDOT,TLE_LINE0,TLE_LINE1,TLE_LINE2,SEMIMAJOR_AXIS,PERIOD,APOGEE,PERIGEE,DECAYED
53388.0,STARLINK-4522,PAYLOAD,2022-12-20 11:48:33,15.0885394,0.0002707,53.2183,359.8053,22.8823,337.2290000000001,0.0002347,3.45e-05,0.0,0 STARLINK-4522,1 53388U 22097A   22354.49205264  .00003450  00000-0  23470-3 0  9996,2 53388  53.2183 359.8053 0002707  22.8823 337.2290 15.08853940 21434,6917.8380000000025,95.437,541.575,537.83,0.0
53388.0,STARLINK-4522,PAYLOAD,2022-12-20 18:10:05,15.08851662,0.0003064,53.2167,358.6167,23.6462,336.4671,0.00021662,3.162e-05,0.0,0 STARLINK-4522,1 53388U 22097A   22354.75701273  .00003162  00000-0  21662-3 0  9997,2 53388  53.2167 358.6167 0003064  23.6462 336.4671 15.08851662 20649,6917.845,95.437,541.8290000000002,537.59,0.0
53388.0,STARLINK-4522,PAYLOAD,2022-12-21 03:42:25,15.08835445,0.0003002,53.217,356.8322,25.1867,334.9271,-2.0528e-05,-6.15e-06,0.0,0 STARLINK-4522,1 53388U 22097A   22355.15446123 -.00000615  00000-0 -20528-4 0  9995,2 53388  53.2170 356.8322 0003002  25.1867 334.9271 15.08835445 20701,6917.894,95.438,541.836,537.683,0.0
53388.0,STARLINK-4522,PAYLOAD,2022-12-21 11:39:22,15.08824831,0.0003303,53.2181,355.3453,24.4902,335.6246,-9.4026e-05,-1.784e-05,0.0,0 STARLINK-4522,1 53388U 22097A   22355.48567570 -.00001784  00000-0 -94026-4 0  9993,2 53388  53.2181 355.3453 0003303  24.4902 335.6246 15.08824831 20750,6917.927,95.439,542.077,537.507,0.0
53388.0,STARLINK-4522,PAYLOAD,2022-12-22 06:43:59,15.08837118,0.0002916,53.2177,351.7761,23.8008,336.3118,-4.7183e-05,-1.039e-05,0.0,0 STARLINK-4522,1 53388U 22097A   22356.28054908 -.00001039  00000-0 -47183-4 0  9993,2 53388  53.2177 351.7761 0002916  23.8008 336.3118 15.08837118 20877,6917.889,95.438,541.771,537.737,0.0
53388.0,STARLINK-4522,PAYLOAD,2022-12-22 11:30:08,15.08837697,0.0002911,53.2182,350.8836,26.3163,333.7976,2.7485e-05,1.49e-06,0.0,0 STARLINK-4522,1 53388U 22097A   22356.47926682  .00000149  00000-0  27485-4 0  9993,2 53388  53.2182 350.8836 0002911  26.3163 333.7976 15.08837697 21732,6917.887,95.438,541.766,537.739,0.0
53388.0,STARLINK-4522,PAYLOAD,2022-12-22 16:16:17,15.08841853,0.0002938,53.2182,349.9917,25.9882,334.1258,5.68e-05,6.16e-06,0.0,0 STARLINK-4522,1 53388U 22097A   22356.67798377  .00000616  00000-0  56800-4 0  9995,2 53388  53.2182 349.9917 0002938  25.9882 334.1258 15.08841853 21763,6917.875,95.437,541.7719999999998,537.707,0.0
53388.0,STARLINK-4522,PAYLOAD,2022-12-23 11:20:56,15.08833833,0.0003016,53.2172,346.4232,25.6838,334.4303,0.00017162,2.443e-05,0.0,0 STARLINK-4522,1 53388U 22097A   22357.47287420  .00002443  00000-0  17162-3 0  9993,2 53388  53.2172 346.4232 0003016  25.6838 334.4303 15.08833833 21055,6917.899,95.438,541.851,537.678,0.0
53388.0,STARLINK-4522,PAYLOAD,2022-12-23 16:07:06,15.08828601,0.0003028,53.2172,345.531,26.2019,333.9126,7.272600000000001e-05,8.69e-06,0.0,0 STARLINK-4522,1 53388U 22097A   22357.67159820  .00000869  00000-0  72726-4 0  9995,2 53388  53.2172 345.5310 0003028  26.2019 333.9126 15.08828601 21912,6917.915,95.438,541.875,537.685,0.0
53388.0,STARLINK-4522,PAYLOAD,2022-12-24 09:36:20,15.08844676,0.0003085,53.2173,342.2598,24.7159,335.3981,0.00024193,3.565e-05,0.0,0 STARLINK-4522,1 53388U 22097A   22358.40023250  .00003565  00000-0  24193-3 0  9994,2 53388  53.2173 342.2598 0003085  24.7159 335.3981 15.08844676 22024,6917.866,95.437,541.865,537.597,0.0
53388.0,STARLINK-4522,PAYLOAD,2022-12-24 15:57:52,15.08841392,0.0003049,53.2175,341.0702,27.5019,332.6134,9.9319e-05,1.293e-05,0.0,0 STARLINK-4522,1 53388U 22097A   22358.66519337  .00001293  00000-0  99319-4 0  9997,2 53388  53.2175 341.0702 0003049  27.5019 332.6134 15.08841392 21230,6917.876,95.437,541.85,537.632,0.0
53388.0,STARLINK-4522,PAYLOAD,2022-12-25 09:27:07,15.08835297,0.0003015,53.2171,337.7989,23.8706,336.2426,-1.5293e-05,-5.32e-06,0.0,0 STARLINK-4522,1 53388U 22097A   22359.39383533 -.00000532  00000-0 -15293-4 0  9991,2 53388  53.2171 337.7989 0003015  23.8706 336.2426 15.08835297 22175,6917.895,95.438,541.846,537.674,0.0
53388.0,STARLINK-4522,PAYLOAD,2022-12-25 15:48:40,15.08821944,0.000277,53.2175,336.6117,26.9689,333.1446,0.00031378,4.707e-05,0.0,0 STARLINK-4522,1 53388U 22097A   22359.65880373  .00004707  00000-0  31378-3 0  9991,2 53388  53.2175 336.6117 0002770  26.9689 333.1446 15.08821944 21385,6917.936,95.439,541.717,537.884,0.0
53388.0,STARLINK-4522,PAYLOAD,2022-12-25 22:10:12,15.08838453,0.0002868,53.2175,335.4208,23.9939,336.1186,0.00013876,1.921e-05,0.0,0 STARLINK-4522,1 53388U 22097A   22359.92375497  .00001921  00000-0  13876-3 0  9995,2 53388  53.2175 335.4208 0002868  23.9939 336.1186 15.08838453 22250,6917.885,95.438,541.734,537.766,0.0
53388.0,STARLINK-4522,PAYLOAD,2022-12-25 23:45:35,15.08838579,0.0002827,53.2179,335.1234,23.0722,337.0396,0.00014515,2.022e-05,0.0,0 STARLINK-4522,1 53388U 22097A   22359.98999516  .00002022  00000-0  14515-3 0  9999,2 53388  53.2179 335.1234 0002827  23.0722 337.0396 15.08838579 21437,6917.885,95.438,541.705,537.794,0.0
53388.0,STARLINK-4522,PAYLOAD,2022-12-26 07:42:31,15.08838208,0.0002883,53.2171,333.6371,23.3827,336.7296,-1.1715e-05,-4.75e-06,0.0,0 STARLINK-4522,1 53388U 22097A   22360.32119488 -.00000475  00000-0 -11715-4 0  9993,2 53388  53.2171 333.6371 0002883  23.3827 336.7296 15.08838208 22317,6917.886,95.438,541.745,537.756,0.0
53388.0,STARLINK-4522,PAYLOAD,2022-12-27 04:22:31,15.08852186,0.000287,53.2172,329.7714,24.6938,335.4191,0.00021272,3.1e-05,0.0,0 STARLINK-4522,1 53388U 22097A   22361.18230698  .00003100  00000-0  21272-3 0  9999,2 53388  53.2172 329.7714 0002870  24.6938 335.4191 15.08852186 21611,6917.843000000003,95.437,541.694,537.7230000000002,0.0
53388.0,STARLINK-4522,PAYLOAD,2022-12-27 07:33:17,15.08851306,0.0002917,53.217,329.1767,23.8684,336.2443,0.00027556,4.101e-05,0.0,0 STARLINK-4522,1 53388U 22097A   22361.31478726  .00004101  00000-0  27556-3 0  9993,2 53388  53.2170 329.1767 0002917  23.8684 336.2443 15.08851306 22468,6917.846,95.437,541.729,537.693,0.0
53388.0,STARLINK-4522,PAYLOAD,2022-12-29 04:04:05,15.08833378,0.0002955,53.217,320.8507,24.036,336.0769,-0.00021959,-3.781e-05,0.0,0 STARLINK-4522,1 53388U 22097A   22363.16950707 -.00003781  00000-0 -21959-3 0  9998,2 53388  53.2170 320.8507 0002955  24.0360 336.0769 15.08833378 21911,6917.901,95.438,541.81,537.721,0.0
53388.0,STARLINK-4522,PAYLOAD,2022-12-29 08:50:15,15.08829103,0.0002803,53.2185,319.9583,21.4811,338.6299,-0.00023817,-4.076e-05,0.0,0 STARLINK-4522,1 53388U 22097A   22363.36823387 -.00004076  00000-0 -23817-3 0  9996,2 53388  53.2185 319.9583 0002803  21.4811 338.6299 15.08829103 21944,6917.9140000000025,95.438,541.7180000000002,537.84,0.0
53388.0,STARLINK-4522,PAYLOAD,2022-12-30 07:05:39,15.08834658,0.0003061999999999,53.2173,315.7953,23.755,336.3583,0.00014228,1.976e-05,0.0,0 STARLINK-4522,1 53388U 22097A   22364.29560124  .00001976  00000-0  14228-3 0  9996,2 53388  53.2173 315.7953 0003062  23.7550 336.3583 15.08834658 22087,6917.897,95.438,541.88,537.643,0.0
53388.0,STARLINK-4522,PAYLOAD,2022-12-31 05:21:03,15.08887656,0.0002959,53.2174,311.633,23.9281,336.1848,0.0014953,0.00023622,0.0,0 STARLINK-4522,1 53388U 22097A   22365.22295142  .00023622  00000-0  14953-2 0  9991,2 53388  53.2174 311.6330 0002959  23.9281 336.1848 15.08887656 22223,6917.735,95.435,541.6469999999998,537.553,0.0
53388.0,STARLINK-4522,PAYLOAD,2022-12-31 06:56:25,15.08894198,0.0002894,53.2171,311.3365,24.0031,336.1096,0.0014689,0.00023203,0.0,0 STARLINK-4522,1 53388U 22097A   22365.28918853  .00023203  00000-0  14689-2 0  9999,2 53388  53.2171 311.3365 0002894  24.0031 336.1096 15.08894198 23065,6917.715,95.434,541.582,537.578,0.0
53388.0,STARLINK-4522,PAYLOAD,2022-12-31 13:17:58,15.08878153,0.0003443999999999,53.2172,310.145,25.618,334.4982,0.00084223,0.00013156,0.0,0 STARLINK-4522,1 53388U 22097A   22365.55414776  .00013156  00000-0  84223-3 0  9992,2 53388  53.2172 310.1450 0003444  25.6180 334.4982 15.08878153 22272,6917.764,95.435,542.011,537.246,0.0
53388.0,STARLINK-4522,PAYLOAD,2023-01-01 06:47:12,15.08829989,0.0002795,53.2167,306.8754,13.4559,346.6507,0.00078425,0.00012212,0.0,0 STARLINK-4522,1 53388U 22097A   23001.28278832  .00012212  00000-0  78425-3 0  9990,2 53388  53.2167 306.8754 0002795  13.4559 346.6507 15.08829989 22381,6917.911,95.438,541.71,537.842,0.0
53388.0,STARLINK-4522,PAYLOAD,2023-01-01 13:08:46,15.08817598,0.0002887999999999,53.2165,305.6848,20.2598,339.8509,0.0008548,0.00013334,0.0,0 STARLINK-4522,1 53388U 22097A   23001.54775669  .00013334  00000-0  85480-3 0  9994,2 53388  53.2165 305.6848 0002888  20.2598 339.8509 15.08817598 22426,6917.949000000001,95.439,541.812,537.816,0.0
53388.0,STARLINK-4522,PAYLOAD,2023-01-02 05:02:38,15.0881114,0.0003043999999999,53.2166,302.7119,22.8529,337.2598,0.00072313,0.00011231,0.0,0 STARLINK-4522,1 53388U 22097A   23002.21017262  .00011231  00000-0  72313-3 0  9992,2 53388  53.2166 302.7119 0003044  22.8529 337.2598 15.08811140 22521,6917.969,95.439,541.939,537.7280000000002,0.0
53388.0,STARLINK-4522,PAYLOAD,2023-01-02 12:59:34,15.08825022,0.0002942,53.2163,301.2249,21.9284,338.1833,0.0007503,0.00011669,0.0,0 STARLINK-4522,1 53388U 22097A   23002.54137402  .00011669  00000-0  75030-3 0  9991,2 53388  53.2163 301.2249 0002942  21.9284 338.1833 15.08825022 23404,6917.926,95.439,541.826,537.756,0.0
53388.0,STARLINK-4522,PAYLOAD,2023-01-03 04:53:25,15.08857274,0.0002987,53.2166,298.2505,24.6719,335.4415,0.0011556,0.00018161,0.0,0 STARLINK-4522,1 53388U 22097A   23003.20377107  .00018161  00000-0  11556-2 0  9999,2 53388  53.2166 298.2505 0002987  24.6719 335.4415 15.08857274 22677,6917.828,95.436,541.759,537.626,0.0
